IRIDIUM 119             
1 42959U 17061E   25013.14192758  .00000393  00000+0  13341-3 0  9991
2 42959  86.3954 242.5240 0001706  88.3913 271.7478 14.34220276380278
IRIDIUM 107             
1 42960U 17061F   25013.37026488  .00000408  00000+0  13863-3 0  9990
2 42960  86.3953 242.4468 0001775 101.3125 258.8270 14.34220330380319
IRIDIUM 132             
1 42961U 17061G   25013.16729858  .00000129  00000+0  38904-4 0  9993
2 42961  86.3954 242.5148 0002014  91.7457 268.3970 14.34219496380284
IRIDIUM 136             
1 42962U 17061H   25013.61762347  .00000373  00000+0  12615-3 0  9995
2 42962  86.3952 242.3306 0001628  90.7231 269.4152 14.34216969380361
IRIDIUM 139             
1 42963U 17061J   25013.62396567  .00000400  00000+0  13585-3 0  9992
2 42963  86.3955 242.3816 0001841  96.2869 263.8536 14.34218596380379
IRIDIUM 125             
1 42964U 17061K   25013.33222092  .00000435  00000+0  14832-3 0  9996
2 42964  86.3957 242.5552 0001391  90.4056 269.7299 14.34218145380343
IRIDIUM 135             
1 43070U 17083A   25013.44586714  .00000356  00000+0  11994-3 0  9993
2 43070  86.3999 179.2367 0002213  88.5947 271.5502 14.34220745369657
IRIDIUM 138             
1 43071U 17083B   25013.40146856 -.00000117  00000+0 -48974-4 0  9995
2 43071  86.3994 178.9465 0001346  78.3794 281.7553 14.34216892369636
